{
  "type": "FeatureCollection",
  "features": [
    {
      "type": "Feature",
      "properties": {
        "norad_id": 40894,
        "name": "GAOFEN-9 01",
        "group": "resource",
        "lat": 15.739568252744805,
        "lon": -150.1740141284455,
        "alt_km": 636.7403025003714,
        "timestamp": "2025-12-14T18:52:55.155453+00:00",
        "meta_object_name": "GAOFEN-9 01",
        "meta_object_id": "2015-047A",
        "meta_epoch": "2025-12-14T00:19:36.160608",
        "meta_mean_motion": 14.82426056,
        "meta_eccentricity": 0.00283084,
        "meta_inclination": 97.6542,
        "meta_ra_of_asc_node": 26.9141,
        "meta_arg_of_pericenter": 30.2412,
        "meta_mean_anomaly": 330.0428,
        "meta_ephemeris_type": 0,
        "meta_classification_type": "U",
        "meta_norad_cat_id": 40894,
        "meta_element_set_no": 999,
        "meta_rev_at_epoch": 55275,
        "meta_bstar": 0.00020700987,
        "meta_mean_motion_dot": 1.619e-05,
        "meta_mean_motion_ddot": 0,
        "tle_line1": "1 40894U 15047A   25348.01361297  .00001619  00000+0  20701-3 0  9992",
        "tle_line2": "2 40894  97.6542  26.9141 0028308  30.2412 330.0428 14.82426056552758"
      },
      "geometry": {
        "type": "Point",
        "coordinates": [
          -150.1740141284455,
          15.739568252744805
        ]
      }
    },
    {
      "type": "Feature",
      "properties": {
        "norad_id": 41026,
        "name": "YAOGAN-28",
        "group": "resource",
        "lat": -80.49957804931574,
        "lon": -103.28886709016817,
        "alt_km": 506.90086193387197,
        "timestamp": "2025-12-14T18:52:55.155463+00:00",
        "meta_object_name": "YAOGAN-28",
        "meta_object_id": "2015-064A",
        "meta_epoch": "2025-12-14T00:23:56.947776",
        "meta_mean_motion": 15.24383802,
        "meta_eccentricity": 0.00123977,
        "meta_inclination": 97.2801,
        "meta_ra_of_asc_node": 125.7725,
        "meta_arg_of_pericenter": 121.9401,
        "meta_mean_anomaly": 238.3044,
        "meta_ephemeris_type": 0,
        "meta_classification_type": "U",
        "meta_norad_cat_id": 41026,
        "meta_element_set_no": 999,
        "meta_rev_at_epoch": 56244,
        "meta_bstar": 0.0004338107,
        "meta_mean_motion_dot": 0.00010586,
        "meta_mean_motion_ddot": 0,
        "tle_line1": "1 41026U 15064A   25348.01663134  .00010586  00000+0  43381-3 0  9996",
        "tle_line2": "2 41026  97.2801 125.7725 0012397 121.9401 238.3044 15.24383802562442"
      },
      "geometry": {
        "type": "Point",
        "coordinates": [
          -103.28886709016817,
          -80.49957804931574
        ]
      }
    },
    {
      "type": "Feature",
      "properties": {
        "norad_id": 41038,
        "name": "YAOGAN-29",
        "group": "resource",
        "lat": 54.19567813744497,
        "lon": 0.6902257559746049,
        "alt_km": 615.1575288781378,
        "timestamp": "2025-12-14T18:52:55.155473+00:00",
        "meta_object_name": "YAOGAN-29",
        "meta_object_id": "2015-069A",
        "meta_epoch": "2025-12-14T00:49:15.369024",
        "meta_mean_motion": 14.82886759,
        "meta_eccentricity": 8.15e-06,
        "meta_inclination": 98.0224,
        "meta_ra_of_asc_node": 11.2102,
        "meta_arg_of_pericenter": 267.3119,
        "meta_mean_anomaly": 92.8085,
        "meta_ephemeris_type": 0,
        "meta_classification_type": "U",
        "meta_norad_cat_id": 41038,
        "meta_element_set_no": 999,
        "meta_rev_at_epoch": 54318,
        "meta_bstar": 0.00017360759,
        "meta_mean_motion_dot": 1.353e-05,
        "meta_mean_motion_ddot": 0,
        "tle_line1": "1 41038U 15069A   25348.03420566  .00001353  00000+0  17361-3 0  9997",
        "tle_line2": "2 41038  98.0224  11.2102 0000081 267.3119  92.8085 14.82886759543189"
      },
      "geometry": {
        "type": "Point",
        "coordinates": [
          0.6902257559746049,
          54.19567813744497
        ]
      }
    },
    {
      "type": "Feature",
      "properties": {
        "norad_id": 41167,
        "name": "KENT RIDGE 1",
        "group": "resource",
        "lat": -14.681987391068905,
        "lon": 94.47726322860274,
        "alt_km": 500.70556345931254,
        "timestamp": "2025-12-14T18:52:55.155483+00:00",
        "meta_object_name": "KENT RIDGE 1",
        "meta_object_id": "2015-077B",
        "meta_epoch": "2025-12-13T19:43:36.244128",
        "meta_mean_motion": 15.21647812,
        "meta_eccentricity": 0.00085203,
        "meta_inclination": 14.9785,
        "meta_ra_of_asc_node": 203.1103,
        "meta_arg_of_pericenter": 146.0561,
        "meta_mean_anomaly": 214.0306,
        "meta_ephemeris_type": 0,
        "meta_classification_type": "U",
        "meta_norad_cat_id": 41167,
        "meta_element_set_no": 999,
        "meta_rev_at_epoch": 55280,
        "meta_bstar": 0.0002142112,
        "meta_mean_motion_dot": 5.749e-05,
        "meta_mean_motion_ddot": 0,
        "tle_line1": "1 41167U 15077B   25347.82194727  .00005749  00000+0  21421-3 0  9997",
        "tle_line2": "2 41167  14.9785 203.1103 0008520 146.0561 214.0306 15.21647812552806"
      },
      "geometry": {
        "type": "Point",
        "coordinates": [
          94.47726322860274,
          -14.681987391068905
        ]
      }
    },
    {
      "type": "Feature",
      "properties": {
        "norad_id": 41194,
        "name": "GAOFEN-4",
        "group": "resource",
        "lat": 0.10531342186506566,
        "lon": 112.55675259807272,
        "alt_km": 35782.81544700763,
        "timestamp": "2025-12-14T18:52:55.155496+00:00",
        "meta_object_name": "GAOFEN-4",
        "meta_object_id": "2015-083A",
        "meta_epoch": "2025-12-14T00:13:28.646976",
        "meta_mean_motion": 1.00269074,
        "meta_eccentricity": 0.0003374,
        "meta_inclination": 0.1737,
        "meta_ra_of_asc_node": 81.3219,
        "meta_arg_of_pericenter": 104.1648,
        "meta_mean_anomaly": 6.4981,
        "meta_ephemeris_type": 0,
        "meta_classification_type": "U",
        "meta_norad_cat_id": 41194,
        "meta_element_set_no": 999,
        "meta_rev_at_epoch": 3667,
        "meta_bstar": 0,
        "meta_mean_motion_dot": -3.18e-06,
        "meta_mean_motion_ddot": 0,
        "tle_line1": "1 41194U 15083A   25348.00935934 -.00000318  00000+0  00000+0 0  9992",
        "tle_line2": "2 41194   0.1737  81.3219 0003374 104.1648   6.4981  1.00269074 36673"
      },
      "geometry": {
        "type": "Point",
        "coordinates": [
          112.55675259807272,
          0.10531342186506566
        ]
      }
    },
    {
      "type": "Feature",
      "properties": {
        "norad_id": 41240,
        "name": "JASON-3",
        "group": "resource",
        "lat": 63.89953512505913,
        "lon": -141.29733790218802,
        "alt_km": 1309.2413386539392,
        "timestamp": "2025-12-14T18:52:55.155507+00:00",
        "meta_object_name": "JASON-3",
        "meta_object_id": "2016-002A",
        "meta_epoch": "2025-12-13T23:49:49.377504",
        "meta_mean_motion": 12.87626595,
        "meta_eccentricity": 0.00071455,
        "meta_inclination": 66.0391,
        "meta_ra_of_asc_node": 155.1894,
        "meta_arg_of_pericenter": 270.89,
        "meta_mean_anomaly": 89.13,
        "meta_ephemeris_type": 0,
        "meta_classification_type": "U",
        "meta_norad_cat_id": 41240,
        "meta_element_set_no": 999,
        "meta_rev_at_epoch": 46340,
        "meta_bstar": 0.00017269966,
        "meta_mean_motion_dot": -1.9e-07,
        "meta_mean_motion_ddot": 0,
        "tle_line1": "1 41240U 16002A   25347.99293261 -.00000019  00000+0  17270-3 0  9992",
        "tle_line2": "2 41240  66.0391 155.1894 0007145 270.8900  89.1300 12.87626595463403"
      },
      "geometry": {
        "type": "Point",
        "coordinates": [
          -141.29733790218802,
          63.89953512505913
        ]
      }
    },
    {
      "type": "Feature",
      "properties": {
        "norad_id": 41335,
        "name": "SENTINEL-3A",
        "group": "resource",
        "lat": 59.915031286460994,
        "lon": 38.57006742331522,
        "alt_km": 796.2376761656042,
        "timestamp": "2025-12-14T18:52:55.155517+00:00",
        "meta_object_name": "SENTINEL-3A",
        "meta_object_id": "2016-011A",
        "meta_epoch": "2025-12-13T22:23:57.571872",
        "meta_mean_motion": 14.26731319,
        "meta_eccentricity": 9.412e-05,
        "meta_inclination": 98.6314,
        "meta_ra_of_asc_node": 52.9285,
        "meta_arg_of_pericenter": 91.2455,
        "meta_mean_anomaly": 268.8833,
        "meta_ephemeris_type": 0,
        "meta_classification_type": "U",
        "meta_norad_cat_id": 41335,
        "meta_element_set_no": 999,
        "meta_rev_at_epoch": 51164,
        "meta_bstar": 0.00011470161,
        "meta_mean_motion_dot": 2.34e-06,
        "meta_mean_motion_ddot": 0,
        "tle_line1": "1 41335U 16011A   25347.93330523  .00000234  00000+0  11470-3 0  9998",
        "tle_line2": "2 41335  98.6314  52.9285 0000941  91.2455 268.8833 14.26731319511642"
      },
      "geometry": {
        "type": "Point",
        "coordinates": [
          38.57006742331522,
          59.915031286460994
        ]
      }
    }
  ]
}